{"type": "FeatureCollection", "features": [ {"type": "Feature", "properties": {"norad_id": 66546, "name": "SHIJIAN-30B", "group": "last-30-days", "lat": -1.6347335758885337, "lon": 161.32950141454083, "alt_km": 527.9888903349392, "timestamp": "2025-12-11T05:00:25.075136+00:00", "meta": {"OBJECT_NAME": "SHIJIAN-30B", "OBJECT_ID": "2025-266B", "EPOCH": "2025-12-10T23:27:31.425120", "MEAN_MOTION": 15.15338882, "ECCENTRICITY": 0.00104156, "INCLINATION": 51.7968, "RA_OF_ASC_NODE": 341.1247, "ARG_OF_PERICENTER": 352.6219, "MEAN_ANOMALY": 7.4602, "EPHEMERIS_TYPE": 0, "CLASSIFICATION_TYPE": "U", "NORAD_CAT_ID": 66546, "ELEMENT_SET_NO": 999, "REV_AT_EPOCH": 331, "BSTAR": 0.00082059607, "MEAN_MOTION_DOT": 0.00015407, "MEAN_MOTION_DDOT": 0}, "tle": {"line1": "1 66546U 25266B   25344.97744705  .00015407  00000+0  82060-3 0  9994", "line2": "2 66546  51.7968 341.1247 0010415 352.6219   7.4602 15.15338882  3316"}}, "geometry": {"type": "Point", "coordinates": [161.32950141454083, -1.6347335758885337]}}, {"type": "Feature", "properties": {"norad_id": 66547, "name": "SHIJIAN-30C", "group": "last-30-days", "lat": 0.3541624098000541, "lon": 159.76973323410593, "alt_km": 527.8727227557356, "timestamp": "2025-12-11T05:00:25.075146+00:00", "meta": {"OBJECT_NAME": "SHIJIAN-30C", "OBJECT_ID": "2025-266C", "EPOCH": "2025-12-10T23:28:12.444384", "MEAN_MOTION": 15.15450749, "ECCENTRICITY": 0.00113396, "INCLINATION": 51.7977, "RA_OF_ASC_NODE": 341.1297, "ARG_OF_PERICENTER": 344.5649, "MEAN_ANOMALY": 15.498, "EPHEMERIS_TYPE": 0, "CLASSIFICATION_TYPE": "U", "NORAD_CAT_ID": 66547, "ELEMENT_SET_NO": 999, "REV_AT_EPOCH": 331, "BSTAR": 0.00085735171, "MEAN_MOTION_DOT": 0.00016169, "MEAN_MOTION_DDOT": 0}, "tle": {"line1": "1 66547U 25266C   25344.97792181  .00016169  00000+0  85735-3 0  9994", "line2": "2 66547  51.7977 341.1297 0011339 344.5649  15.4980 15.15450749  3310"}}, "geometry": {"type": "Point", "coordinates": [159.76973323410593, 0.3541624098000541]}}, {"type": "Feature", "properties": {"norad_id": 66548, "name": "CZ-2C R/B", "group": "last-30-days", "lat": -44.393076882736324, "lon": -151.61701371041764, "alt_km": 464.27639884612927, "timestamp": "2025-12-11T05:00:25.075156+00:00", "meta": {"OBJECT_NAME": "CZ-2C R/B", "OBJECT_ID": "2025-266D", "EPOCH": "2025-12-10T23:15:14.236128", "MEAN_MOTION": 15.30116935, "ECCENTRICITY": 0.00840059, "INCLINATION": 52.0561, "RA_OF_ASC_NODE": 339.716, "ARG_OF_PERICENTER": 166.9335, "MEAN_ANOMALY": 193.3855, "EPHEMERIS_TYPE": 0, "CLASSIFICATION_TYPE": "U", "NORAD_CAT_ID": 66548, "ELEMENT_SET_NO": 999, "REV_AT_EPOCH": 334, "BSTAR": 0.00046431416, "MEAN_MOTION_DOT": 0.00014923, "MEAN_MOTION_DDOT": 0}, "tle": {"line1": "1 66548U 25266D   25344.96891477  .00014923  00000+0  46431-3 0  9998", "line2": "2 66548  52.0561 339.7160 0084005 166.9335 193.3855 15.30116935  3347"}}, "geometry": {"type": "Point", "coordinates": [-151.61701371041764, -44.393076882736324]}}, {"type": "Feature", "properties": {"norad_id": 66549, "name": "SHIJIAN-28", "group": "last-30-days", "lat": -1.485078698809154, "lon": -93.6020301630905, "alt_km": 34495.36549994012, "timestamp": "2025-12-11T05:00:25.075169+00:00", "meta": {"OBJECT_NAME": "SHIJIAN-28", "OBJECT_ID": "2025-277A", "EPOCH": "2025-12-01T04:36:42.476256", "MEAN_MOTION": 2.08595383, "ECCENTRICITY": 0.6308324, "INCLINATION": 11.5392, "RA_OF_ASC_NODE": 275.706, "ARG_OF_PERICENTER": 179.9335, "MEAN_ANOMALY": 180.3971, "EPHEMERIS_TYPE": 0, "CLASSIFICATION_TYPE": "U", "NORAD_CAT_ID": 66549, "ELEMENT_SET_NO": 999, "REV_AT_EPOCH": 5, "BSTAR": 0, "MEAN_MOTION_DOT": -3.3e-07, "MEAN_MOTION_DDOT": 0}, "tle": {"line1": "1 66549U 25277A   25335.19215829 -.00000033  00000+0  00000+0 0  9993", "line2": "2 66549  11.5392 275.7060 6308324 179.9335 180.3971  2.08595383    50"}}, "geometry": {"type": "Point", "coordinates": [-93.6020301630905, -1.485078698809154]}}, {"type": "Feature", "properties": {"norad_id": 66550, "name": "CZ-7A R/B", "group": "last-30-days", "lat": 4.427310592405282, "lon": -71.78127207729473, "alt_km": 29719.303424637972, "timestamp": "2025-12-11T05:00:25.075188+00:00", "meta": {"OBJECT_NAME": "CZ-7A R/B", "OBJECT_ID": "2025-277B", "EPOCH": "2025-12-09T05:27:24.418944", "MEAN_MOTION": 2.57975656, "ECCENTRICITY": 0.71041719, "INCLINATION": 14.4001, "RA_OF_ASC_NODE": 271.6446, "ARG_OF_PERICENTER": 185.6905, "MEAN_ANOMALY": 156.7335, "EPHEMERIS_TYPE": 0, "CLASSIFICATION_TYPE": "U", "NORAD_CAT_ID": 66550, "ELEMENT_SET_NO": 999, "REV_AT_EPOCH": 25, "BSTAR": 0.0029500826, "MEAN_MOTION_DOT": 0.01805656, "MEAN_MOTION_DDOT": 5.50612e-07}, "tle": {"line1": "1 66550U 25277B   25343.22736596  .01805656  55061-6  29501-2 0  9995", "line2": "2 66550  14.4001 271.6446 7104171 185.6905 156.7335  2.57975656   258"}}, "geometry": {"type": "Point", "coordinates": [-71.78127207729473, 4.427310592405282]}}, {"type": "Feature", "properties": {"norad_id": 66551, "name": "USA 568", "group": "last-30-days", "lat": 51.76384282181639, "lon": -57.4707316201545, "alt_km": 280.6668210256594, "timestamp": "2025-12-11T05:00:25.075199+00:00", "meta": {"OBJECT_NAME": "USA 568", "OBJECT_ID": "2024-134K", "EPOCH": "2025-12-02T16:00:03.000096", "MEAN_MOTION": 15.87051116, "ECCENTRICITY": 7.17e-05, "INCLINATION": 53.1571, "RA_OF_ASC_NODE": 236.7807, "ARG_OF_PERICENTER": 110.7411, "MEAN_ANOMALY": 313.9012, "EPHEMERIS_TYPE": 0, "CLASSIFICATION_TYPE": "U", "NORAD_CAT_ID": 66551, "ELEMENT_SET_NO": 999, "REV_AT_EPOCH": 262, "BSTAR": -0.0074303, "MEAN_MOTION_DOT": -0.01709685, "MEAN_MOTION_DDOT": 0}, "tle": {"line1": "1 66551U 24134K   25336.66670139 -.01709685  00000+0 -74303-2 0  9990", "line2": "2 66551  53.1571 236.7807 0000717 110.7411 313.9012 15.87051116  2624"}}, "geometry": {"type": "Point", "coordinates": [-57.4707316201545, 51.76384282181639]}}, {"type": "Feature", "properties": {"norad_id": 66554, "name": "GLOBAL-33", "group": "last-30-days", "lat": -38.18963042521873, "lon": -53.2869419872694, "alt_km": 476.8906747751944, "timestamp": "2025-12-11T05:00:25.075211+00:00", "meta": {"OBJECT_NAME": "GLOBAL-33", "OBJECT_ID": "2025-267A", "EPOCH": "2025-12-10T15:24:39.487680", "MEAN_MOTION": 15.31574515, "ECCENTRICITY": 0.00044949, "INCLINATION": 42.0208, "RA_OF_ASC_NODE": 69.1028, "ARG_OF_PERICENTER": 38.4593, "MEAN_ANOMALY": 321.6564, "EPHEMERIS_TYPE": 0, "CLASSIFICATION_TYPE": "U", "NORAD_CAT_ID": 66554, "ELEMENT_SET_NO": 999, "REV_AT_EPOCH": 308, "BSTAR": 0.0006382923, "MEAN_MOTION_DOT": 0.00019688, "MEAN_MOTION_DDOT": 0}, "tle": {"line1": "1 66554U 25267A   25344.64212370  .00019688  00000+0  63829-3 0  9993", "line2": "2 66554  42.0208  69.1028 0004494  38.4593 321.6564 15.31574515  3088"}}, "geometry": {"type": "Point", "coordinates": [-53.2869419872694, -38.18963042521873]}}, {"type": "Feature", "properties": {"norad_id": 66555, "name": "ELECTRON KICK STAGE R/B", "group": "last-30-days", "lat": -32.61316538698712, "lon": 20.400802497988245, "alt_km": 470.8531166390303, "timestamp": "2025-12-11T05:00:25.075222+00:00", "meta": {"OBJECT_NAME": "ELECTRON KICK STAGE R/B", "OBJECT_ID": "2025-267B", "EPOCH": "2025-12-10T16:43:42.369888", "MEAN_MOTION": 15.32651226, "ECCENTRICITY": 0.0006656, "INCLINATION": 42.0192, "RA_OF_ASC_NODE": 68.6479, "ARG_OF_PERICENTER": 36.7462, "MEAN_ANOMALY": 323.3831, "EPHEMERIS_TYPE": 0, "CLASSIFICATION_TYPE": "U", "NORAD_CAT_ID": 66555, "ELEMENT_SET_NO": 999, "REV_AT_EPOCH": 309, "BSTAR": 0.0011651787, "MEAN_MOTION_DOT": 0.000375, "MEAN_MOTION_DDOT": 0}, "tle": {"line1": "1 66555U 25267B   25344.69701817  .00037500  00000+0  11652-2 0  9997", "line2": "2 66555  42.0192  68.6479 0006656  36.7462 323.3831 15.32651226  3096"}}, "geometry": {"type": "Point", "coordinates": [20.400802497988245, -32.61316538698712]}}, {"type": "Feature", "properties": {"norad_id": 66557, "name": "STARLINK-35699", "group": "last-30-days", "lat": -1.1551728986064982, "lon": -48.60609605517856, "alt_km": 415.1265170897559, "timestamp": "2025-12-11T05:00:25.075233+00:00", "meta": {"OBJECT_NAME": "STARLINK-35699", "OBJECT_ID": "2025-268A", "EPOCH": "2025-12-10T22:00:03.000096", "MEAN_MOTION": 15.50585471, "ECCENTRICITY": 0.00014699, "INCLINATION": 43.0003, "RA_OF_ASC_NODE": 131.8619, "ARG_OF_PERICENTER": 276.5191, "MEAN_ANOMALY": 73.6243, "EPHEMERIS_TYPE": 0, "CLASSIFICATION_TYPE": "U", "NORAD_CAT_ID": 66557, "ELEMENT_SET_NO": 999, "REV_AT_EPOCH": 437, "BSTAR": -0.00068155964, "MEAN_MOTION_DOT": -0.0004013, "MEAN_MOTION_DDOT": 0}, "tle": {"line1": "1 66557U 25268A   25344.91670139 -.00040130  00000+0 -68156-3 0  9994", "line2": "2 66557  43.0003 131.8619 0001469 276.5191  73.6243 15.50585471  4371"}}, "geometry": {"type": "Point", "coordinates": [-48.60609605517856, -1.1551728986064982]}}, {"type": "Feature", "properties": {"norad_id": 66558, "name": "STARLINK-35695", "group": "last-30-days", "lat": -2.4779615836764246, "lon": -47.18868714490141, "alt_km": 414.74768331897303, "timestamp": "2025-12-11T05:00:25.075245+00:00", "meta": {"OBJECT_NAME": "STARLINK-35695", "OBJECT_ID": "2025-268B", "EPOCH": "2025-12-10T22:00:03.000096", "MEAN_MOTION": 15.50625747, "ECCENTRICITY": 0.00032057, "INCLINATION": 43.0001, "RA_OF_ASC_NODE": 131.8576, "ARG_OF_PERICENTER": 267.6905, "MEAN_ANOMALY": 84.3431, "EPHEMERIS_TYPE": 0, "CLASSIFICATION_TYPE": "U", "NORAD_CAT_ID": 66558, "ELEMENT_SET_NO": 999, "REV_AT_EPOCH": 437, "BSTAR": 0.00090956039, "MEAN_MOTION_DOT": 0.00053479, "MEAN_MOTION_DDOT": 0}, "tle": {"line1": "1 66558U 25268B   25344.91670139  .00053479  00000+0  90956-3 0  9996", "line2": "2 66558  43.0001 131.8576 0003205 267.6905  84.3431 15.50625747  4375"}}, "geometry": {"type": "Point", "coordinates": [-47.18868714490141, -2.4779615836764246]}}]}